H1 CPF 01  gfz 2021 02 13 01  5441 terrasarx 
H2 0702601  6201 31698    2021 02 13 00 59 42 2021 02 18 00 00 42   120 1 1  0 0 0
H9
10 0 59262  71982.000000  0    5532861.344  -2673250.711  -3123276.373
10 0 59262  72102.000000  0    5767524.437  -2996636.376  -2293318.311
10 0 59262  72222.000000  0    5896369.792  -3270939.679  -1423080.845
10 0 59262  72342.000000  0    5917980.323  -3489463.694   -527827.638
10 0 59262  72462.000000  0    5832933.215  -3646479.574    376710.133
10 0 59262  72582.000000  0    5643778.411  -3737366.893   1274616.567
10 0 59262  72702.000000  0    5354977.474  -3758733.216   2150080.722
10 0 59262  72822.000000  0    4972801.500  -3708506.926   2987684.427
10 0 59262  72942.000000  0    4505194.127  -3586003.550   3772680.759
10 0 59262  73062.000000  0    3961603.325  -3391962.984   4491258.804
10 0 59262  73182.000000  0    3352785.026  -3128558.552   5130790.407
10 0 59262  73302.000000  0    2690582.625  -2799375.247   5680051.786
10 0 59262  73422.000000  0    1987690.877  -2409359.274   6129417.388
10 0 59262  73542.000000  0    1257407.368  -1964741.050   6471023.362
10 0 59262  73662.000000  0     513377.753  -1472932.965   6698899.058
10 0 59262  73782.000000  0    -230660.604   -942403.380   6809065.366
10 0 59262  73902.000000  0    -961131.898   -382529.434   6799599.242
10 0 59262  74022.000000  0   -1664868.315    196568.564   6670664.820
10 0 59262  74142.000000  0   -2329346.402    784209.579   6424510.852
10 0 59262  74262.000000  0   -2942909.722   1369347.908   6065434.204
10 0 59262  74382.000000  0   -3494974.528   1940779.800   5599709.937
10 0 59262  74502.000000  0   -3976216.029   2487357.964   5035488.530
10 0 59262  74622.000000  0   -4378731.262   2998210.842   4382659.319
10 0 59262  74742.000000  0   -4696175.386   3462960.783   3652681.535
10 0 59262  74862.000000  0   -4923867.626   3871937.172   2858385.584
10 0 59262  74982.000000  0   -5058864.585   4216380.588   2013748.061
10 0 59262  75102.000000  0   -5100000.015   4488633.167   1133643.069
10 0 59262  75222.000000  0   -5047887.434   4682308.628    233573.526
10 0 59262  75342.000000  0   -4904887.013   4792436.979   -670609.325
10 0 59262  75462.000000  0   -4675037.653   4815582.913  -1562994.456
10 0 59262  75582.000000  0   -4363953.005   4749932.819  -2427900.926
10 0 59262  75702.000000  0   -3978687.291   4595347.108  -3250160.815
10 0 59262  75822.000000  0   -3527573.184   4353377.961  -4015389.511
10 0 59262  75942.000000  0   -3020037.312   4027253.229  -4710236.551
10 0 59262  76062.000000  0   -2466399.444   3621827.950  -5322613.129
10 0 59262  76182.000000  0   -1877660.800   3143506.521  -5841894.767
10 0 59262  76302.000000  0   -1265283.809   2600135.220  -6259096.879
10 0 59262  76422.000000  0    -640968.854   2000867.707  -6567018.927
10 0 59262  76542.000000  0     -16433.248   1356008.553  -6760356.905
10 0 59262  76662.000000  0     596803.744    676836.394  -6835785.086
10 0 59262  76782.000000  0    1187628.347    -24589.786  -6792008.221
10 0 59262  76902.000000  0    1745529.728   -735640.938  -6629780.762
10 0 59262  77022.000000  0    2260781.972  -1443339.545  -6351894.155
10 0 59262  77142.000000  0    2724610.803  -2134590.392  -5963134.262
10 0 59262  77262.000000  0    3129342.082  -2796417.322  -5470208.421
10 0 59262  77382.000000  0    3468531.542  -3416206.022  -4881641.890
10 0 59262  77502.000000  0    3737070.746  -3981945.513  -4207639.341
10 0 59262  77622.000000  0    3931266.970  -4482462.144  -3459918.080
10 0 59262  77742.000000  0    4048898.056  -4907644.710  -2651513.844
10 0 59262  77862.000000  0    4089239.754  -5248655.674  -1796558.981
10 0 59262  77982.000000  0    4053061.805  -5498121.590   -910035.775
10 0 59262  78102.000000  0    3942594.376  -5650297.142     -7511.054
10 0 59262  78222.000000  0    3761463.835  -5701198.803    895143.322
10 0 59262  78342.000000  0    3514600.326  -5648704.437   1782037.566
10 0 59262  78462.000000  0    3208118.342  -5492614.445   2637553.878
10 0 59262  78582.000000  0    2849172.611  -5234673.615   3446628.941
10 0 59262  78702.000000  0    2445795.293  -4878554.595   4195025.251
10 0 59262  78822.000000  0    2006718.295  -4429802.431   4869585.671
10 0 59262  78942.000000  0    1541184.331  -3895741.788   5458465.829
10 0 59262  79062.000000  0    1058752.067  -3285349.760   5951341.051
10 0 59262  79182.000000  0     569098.330  -2609096.613   6339582.768
10 0 59262  79302.000000  0      81823.795  -1878760.232   6616402.498
10 0 59262  79422.000000  0    -393734.216  -1107217.725   6776963.755
10 0 59262  79542.000000  0    -848679.325   -308216.814   6818462.676
10 0 59262  79662.000000  0   -1274721.472    503870.081   6740173.943
10 0 59262  79782.000000  0   -1664327.476   1314303.941   6543462.352
10 0 59262  79902.000000  0   -2010854.067   2108245.637   6231760.453
10 0 59262  80022.000000  0   -2308661.930   2871027.162   5810512.522
10 0 59262  80142.000000  0   -2553208.336   3588423.633   5287084.965
10 0 59262  80262.000000  0   -2741118.021   4246921.516   4670644.624
10 0 59262  80382.000000  0   -2870230.694   4833978.953   3972004.011
10 0 59262  80502.000000  0   -2939623.139   5338272.145   3203435.369
10 0 59262  80622.000000  0   -2949605.390   5749921.823   2378455.654
10 0 59262  80742.000000  0   -2901691.260   6060694.027   1511587.037
10 0 59262  80862.000000  0   -2798543.480   6264171.018    618097.050
10 0 59262  80982.000000  0   -2643894.438   6355888.062   -286276.919
10 0 59262  81102.000000  0   -2442445.160   6333431.975  -1185613.588
10 0 59262  81222.000000  0   -2199744.425   6196498.014  -2064099.429
10 0 59262  81342.000000  0   -1922049.212   5946899.950  -2906316.361
10 0 59262  81462.000000  0   -1616173.084   5588538.681  -3697515.265
10 0 59262  81582.000000  0   -1289327.249   5127331.706  -4423875.320
10 0 59262  81702.000000  0    -948957.211   4571103.370  -5072742.600
10 0 59262  81822.000000  0    -602579.204   3929441.839  -5632844.175
10 0 59262  81942.000000  0    -257619.231   3213524.582  -6094476.347
10 0 59262  82062.000000  0      78741.617   2435915.456  -6449662.502
10 0 59262  82182.000000  0     399711.494   1610340.243  -6692278.550
10 0 59262  82302.000000  0     699019.995    751445.044  -6818148.969
10 0 59262  82422.000000  0     971036.796   -125460.622  -6825110.939
10 0 59262  82542.000000  0    1210874.255  -1004671.849  -6713047.005
10 0 59262  82662.000000  0    1414472.595  -1870362.667  -6483885.158
10 0 59262  82782.000000  0    1578667.306  -2706862.846  -6141569.483
10 0 59262  82902.000000  0    1701238.505  -3498935.912  -5692001.168
10 0 59262  83022.000000  0    1780940.017  -4232056.355  -5142947.676
10 0 59262  83142.000000  0    1817508.371  -4892677.326  -4503917.911
10 0 59262  83262.000000  0    1811651.705  -5468484.369  -3786008.727
10 0 59262  83382.000000  0    1765017.875  -5948633.768  -3001722.309
10 0 59262  83502.000000  0    1680141.445  -6323967.691  -2164754.812
10 0 59262  83622.000000  0    1560371.919  -6587200.052  -1289759.374
10 0 59262  83742.000000  0    1409783.815  -6733069.075   -392089.102
10 0 59262  83862.000000  0    1233070.439  -6758452.355    512477.828
10 0 59262  83982.000000  0    1035424.577  -6662438.171   1408022.120
10 0 59262  84102.000000  0     822407.583  -6446354.616   2278772.805
10 0 59262  84222.000000  0     599812.365  -6113751.184   3109395.122
10 0 59262  84342.000000  0     373521.047  -5670334.934   3885267.988
10 0 59262  84462.000000  0     149362.734  -5123865.035   4592745.450
10 0 59262  84582.000000  0     -67024.773  -4484008.003   5219399.027
10 0 59262  84702.000000  0    -270326.417  -3762156.495   5754235.270
10 0 59262  84822.000000  0    -455670.920  -2971216.590   6187886.008
10 0 59262  84942.000000  0    -618739.710  -2125368.061   6512765.829
10 0 59262  85062.000000  0    -755861.355  -1239806.274   6723197.174
10 0 59262  85182.000000  0    -864089.744   -330467.630   6815504.917
10 0 59262  85302.000000  0    -941265.283    586258.357   6788077.396
10 0 59262  85422.000000  0    -986057.121   1493824.337   6641392.647
10 0 59262  85542.000000  0    -997985.679   2375823.129   6378010.410
10 0 59262  85662.000000  0    -977425.994   3216283.963   6002530.375
10 0 59262  85782.000000  0    -925591.968   3999963.121   5521516.838
10 0 59262  85902.000000  0    -844500.802   4712623.557   4943389.521
10 0 59262  86022.000000  0    -736919.365   5341299.908   4278282.881
10 0 59262  86142.000000  0    -606292.423   5874542.809   3537871.823
10 0 59262  86262.000000  0    -456654.880   6302635.515   2735171.289
10 0 59262  86382.000000  0    -292530.625   6617784.743   1884307.317
99
